{
  "type": "FeatureCollection",
  "features": [
    {
      "type": "Feature",
      "properties": {
        "norad_id": 32308,
        "name": "FENGYUN 1C DEB",
        "group": "fengyun-1c-debris",
        "lat": 81.66749489172899,
        "lon": -22.57269569328896,
        "alt_km": 815.0411549493838,
        "timestamp": "2025-12-20T11:30:28.662963+00:00",
        "meta_object_name": "FENGYUN 1C DEB",
        "meta_object_id": "1999-025CWZ",
        "meta_epoch": "2025-12-18T02:43:23.295648",
        "meta_mean_motion": 14.05525608,
        "meta_eccentricity": 0.01083328,
        "meta_inclination": 97.7739,
        "meta_ra_of_asc_node": 44.2538,
        "meta_arg_of_pericenter": 44.9982,
        "meta_mean_anomaly": 315.9904,
        "meta_ephemeris_type": 0,
        "meta_classification_type": "U",
        "meta_norad_cat_id": 32308,
        "meta_element_set_no": 999,
        "meta_rev_at_epoch": 65487,
        "meta_bstar": 0.0012185561,
        "meta_mean_motion_dot": 2.054e-05,
        "meta_mean_motion_ddot": 0,
        "tle_line1": "1 32308U 99025CWZ 25352.11346407  .00002054  00000+0  12186-2 0  9994",
        "tle_line2": "2 32308  97.7739  44.2538 0108332  44.9982 315.9904 14.05525608654876"
      },
      "geometry": {
        "type": "Point",
        "coordinates": [
          -22.57269569328896,
          81.66749489172899
        ]
      }
    },
    {
      "type": "Feature",
      "properties": {
        "norad_id": 32314,
        "name": "FENGYUN 1C DEB",
        "group": "fengyun-1c-debris",
        "lat": -27.441405564882185,
        "lon": -84.32943339428415,
        "alt_km": 606.442653086795,
        "timestamp": "2025-12-20T11:30:28.662973+00:00",
        "meta_object_name": "FENGYUN 1C DEB",
        "meta_object_id": "1999-025CXF",
        "meta_epoch": "2025-12-18T13:08:32.417952",
        "meta_mean_motion": 14.79656862,
        "meta_eccentricity": 0.01487207,
        "meta_inclination": 98.8637,
        "meta_ra_of_asc_node": 98.1883,
        "meta_arg_of_pericenter": 139.4784,
        "meta_mean_anomaly": 221.7612,
        "meta_ephemeris_type": 0,
        "meta_classification_type": "U",
        "meta_norad_cat_id": 32314,
        "meta_element_set_no": 999,
        "meta_rev_at_epoch": 97516,
        "meta_bstar": 0.0010944124,
        "meta_mean_motion_dot": 9.852e-05,
        "meta_mean_motion_ddot": 0,
        "tle_line1": "1 32314U 99025CXF 25352.54759743  .00009852  00000+0  10944-2 0  9992",
        "tle_line2": "2 32314  98.8637  98.1883 0148720 139.4784 221.7612 14.79656862975164"
      },
      "geometry": {
        "type": "Point",
        "coordinates": [
          -84.32943339428415,
          -27.441405564882185
        ]
      }
    },
    {
      "type": "Feature",
      "properties": {
        "norad_id": 32315,
        "name": "FENGYUN 1C DEB",
        "group": "fengyun-1c-debris",
        "lat": 14.347926903663442,
        "lon": 135.71360520788605,
        "alt_km": 983.2108476005897,
        "timestamp": "2025-12-20T11:30:28.662983+00:00",
        "meta_object_name": "FENGYUN 1C DEB",
        "meta_object_id": "1999-025CXG",
        "meta_epoch": "2025-11-20T16:04:27.676128",
        "meta_mean_motion": 13.66155502,
        "meta_eccentricity": 0.02289149,
        "meta_inclination": 100.8052,
        "meta_ra_of_asc_node": 105.2905,
        "meta_arg_of_pericenter": 168.6,
        "meta_mean_anomaly": 192.0449,
        "meta_ephemeris_type": 0,
        "meta_classification_type": "U",
        "meta_norad_cat_id": 32315,
        "meta_element_set_no": 999,
        "meta_rev_at_epoch": 60787,
        "meta_bstar": 0.00024184327,
        "meta_mean_motion_dot": 1.85e-06,
        "meta_mean_motion_ddot": 0,
        "tle_line1": "1 32315U 99025CXG 25324.66976477  .00000185  00000+0  24184-3 0  9992",
        "tle_line2": "2 32315 100.8052 105.2905 0228914 168.6000 192.0449 13.66155502607872"
      },
      "geometry": {
        "type": "Point",
        "coordinates": [
          135.71360520788605,
          14.347926903663442
        ]
      }
    },
    {
      "type": "Feature",
      "properties": {
        "norad_id": 32316,
        "name": "FENGYUN 1C DEB",
        "group": "fengyun-1c-debris",
        "lat": 13.18288323386854,
        "lon": -155.7733250804667,
        "alt_km": 734.5317971010827,
        "timestamp": "2025-12-20T11:30:28.662995+00:00",
        "meta_object_name": "FENGYUN 1C DEB",
        "meta_object_id": "1999-025CXH",
        "meta_epoch": "2025-12-19T13:56:17.244096",
        "meta_mean_motion": 14.51952704,
        "meta_eccentricity": 0.0026401,
        "meta_inclination": 99.5285,
        "meta_ra_of_asc_node": 20.9536,
        "meta_arg_of_pericenter": 308.626,
        "meta_mean_anomaly": 202.9731,
        "meta_ephemeris_type": 0,
        "meta_classification_type": "U",
        "meta_norad_cat_id": 32316,
        "meta_element_set_no": 999,
        "meta_rev_at_epoch": 95876,
        "meta_bstar": 0.001205,
        "meta_mean_motion_dot": 4.831e-05,
        "meta_mean_motion_ddot": 0,
        "tle_line1": "1 32316U 99025CXH 25353.58075514  .00004831  00000+0  12050-2 0  9998",
        "tle_line2": "2 32316  99.5285  20.9536 0026401 308.6260 202.9731 14.51952704958765"
      },
      "geometry": {
        "type": "Point",
        "coordinates": [
          -155.7733250804667,
          13.18288323386854
        ]
      }
    },
    {
      "type": "Feature",
      "properties": {
        "norad_id": 32320,
        "name": "FENGYUN 1C DEB",
        "group": "fengyun-1c-debris",
        "lat": 0.16345562814459313,
        "lon": -146.8994279129066,
        "alt_km": 737.80682933961,
        "timestamp": "2025-12-20T11:30:28.663005+00:00",
        "meta_object_name": "FENGYUN 1C DEB",
        "meta_object_id": "1999-025CXM",
        "meta_epoch": "2025-12-19T20:27:32.982912",
        "meta_mean_motion": 14.3617206,
        "meta_eccentricity": 0.00563043,
        "meta_inclination": 100.3749,
        "meta_ra_of_asc_node": 212.377,
        "meta_arg_of_pericenter": 28.0804,
        "meta_mean_anomaly": 332.3393,
        "meta_ephemeris_type": 0,
        "meta_classification_type": "U",
        "meta_norad_cat_id": 32320,
        "meta_element_set_no": 999,
        "meta_rev_at_epoch": 62275,
        "meta_bstar": 0.00057587,
        "meta_mean_motion_dot": 1.65e-05,
        "meta_mean_motion_ddot": 0,
        "tle_line1": "1 32320U 99025CXM 25353.85246508  .00001650  00000+0  57587-3 0  9997",
        "tle_line2": "2 32320 100.3749 212.3770 0056304  28.0804 332.3393 14.36172060622756"
      },
      "geometry": {
        "type": "Point",
        "coordinates": [
          -146.8994279129066,
          0.16345562814459313
        ]
      }
    },
    {
      "type": "Feature",
      "properties": {
        "norad_id": 32322,
        "name": "FENGYUN 1C DEB",
        "group": "fengyun-1c-debris",
        "lat": 46.181985003720044,
        "lon": 64.0246050768361,
        "alt_km": 937.6747940909281,
        "timestamp": "2025-12-20T11:30:28.663018+00:00",
        "meta_object_name": "FENGYUN 1C DEB",
        "meta_object_id": "1999-025CXP",
        "meta_epoch": "2025-12-14T10:53:55.069440",
        "meta_mean_motion": 13.34140206,
        "meta_eccentricity": 0.04192174,
        "meta_inclination": 98.3703,
        "meta_ra_of_asc_node": 230.2532,
        "meta_arg_of_pericenter": 93.3217,
        "meta_mean_anomaly": 271.5949,
        "meta_ephemeris_type": 0,
        "meta_classification_type": "U",
        "meta_norad_cat_id": 32322,
        "meta_element_set_no": 999,
        "meta_rev_at_epoch": 60402,
        "meta_bstar": 0.0014557048,
        "meta_mean_motion_dot": 1.161e-05,
        "meta_mean_motion_ddot": 0,
        "tle_line1": "1 32322U 99025CXP 25348.45410960  .00001161  00000+0  14557-2 0  9990",
        "tle_line2": "2 32322  98.3703 230.2532 0419217  93.3217 271.5949 13.34140206604023"
      },
      "geometry": {
        "type": "Point",
        "coordinates": [
          64.0246050768361,
          46.181985003720044
        ]
      }
    },
    {
      "type": "Feature",
      "properties": {
        "norad_id": 32323,
        "name": "FENGYUN 1C DEB",
        "group": "fengyun-1c-debris",
        "lat": -81.26415559849528,
        "lon": -121.77517025577008,
        "alt_km": 890.7795016346172,
        "timestamp": "2025-12-20T11:30:28.663028+00:00",
        "meta_object_name": "FENGYUN 1C DEB",
        "meta_object_id": "1999-025CXQ",
        "meta_epoch": "2025-12-19T15:19:13.533312",
        "meta_mean_motion": 13.96612746,
        "meta_eccentricity": 0.015623,
        "meta_inclination": 98.5704,
        "meta_ra_of_asc_node": 136.3682,
        "meta_arg_of_pericenter": 190.9743,
        "meta_mean_anomaly": 168.7999,
        "meta_ephemeris_type": 0,
        "meta_classification_type": "U",
        "meta_norad_cat_id": 32323,
        "meta_element_set_no": 999,
        "meta_rev_at_epoch": 60366,
        "meta_bstar": 0.0022503,
        "meta_mean_motion_dot": 3.415e-05,
        "meta_mean_motion_ddot": 0,
        "tle_line1": "1 32323U 99025CXQ 25353.63835108  .00003415  00000+0  22503-2 0  9996",
        "tle_line2": "2 32323  98.5704 136.3682 0156230 190.9743 168.7999 13.96612746603662"
      },
      "geometry": {
        "type": "Point",
        "coordinates": [
          -121.77517025577008,
          -81.26415559849528
        ]
      }
    }
  ]
}